*******************************************************************************
Ephemeris / WWW_USER Mon Mar 24 10:55:45 2025 Pasadena, USA      / Horizons    
*******************************************************************************
Target body name: (2018 RY7)                      {source: JPL#20}
Center body name: Earth (399)                     {source: DE441}
Center-site name: Mauna Kea
*******************************************************************************
Start time      : A.D. 2018-Aug-02 05:08:00.0000 UT      
Stop  time      : A.D. 2018-Aug-02 15:48:00.0000 UT      
Step-size       : 1 minutes
*******************************************************************************
Target pole/equ : undefined
Target radii    : undefined                                                    
Center geodetic : 204.5278, 19.8260847, 4.21024   {E-lon(deg),Lat(deg),Alt(km)}
Center cylindric: 204.5278, 6006.35451, 2151.0229 {E-lon(deg),Dxy(km),Dz(km)}
Center pole/equ : ITRF93                          {East-longitude positive}
Center radii    : 6378.137, 6378.137, 6356.752 km {Equator_a, b, pole_c}       
Target primary  : Sun
Vis. interferer : MOON (R_eq= 1737.400) km        {source: DE441}
Rel. light bend : Sun                             {source: DE441}
Rel. lght bnd GM: 1.3271E+11 km^3/s^2                                          
Small-body perts: Yes                             {source: SB441-N16}
Atmos refraction: NO (AIRLESS)
RA format       : HMS
Time format     : CAL 
Calendar mode   : Mixed Julian/Gregorian
RTS-only print  : NO       
EOP file        : eop.250321.p250617                                           
EOP coverage    : DATA-BASED 1962-JAN-20 TO 2025-MAR-21. PREDICTS-> 2025-JUN-16
Units conversion: 1 au= 149597870.700 km, c= 299792.458 km/s, 1 day= 86400.0 s 
Table cut-offs 1: Elevation (-90.0deg=NO ),Airmass (>38.000=NO), Daylight (YES)
Table cut-offs 2: Solar elongation (  0.0,180.0=NO ),Local Hour Angle( 0.0=NO )
Table cut-offs 3: RA/DEC angular rate (     0.0=NO )                           
*******************************************************************************
Initial IAU76/J2000 heliocentric ecliptic osculating elements (au, days, deg.):
  EPOCH=  2458422.5 ! 2018-Oct-31.00 (TDB)         Residual RMS= .22459        
   EC= .1470549687381346   QR= .8667733479166969   TP= 2458516.8896767548      
   OM= 2.838668085760325   W=  136.9006026425241   IN= 13.35135890147074       
  Equivalent ICRF heliocentric cartesian coordinates (au, au/d):
   X= 8.791791513870114E-01  Y= 4.508422091141234E-01  Z= 3.244113040133835E-01
  VX=-1.085418916943652E-02 VY= 1.006005810562689E-02 VZ= 7.673980932675997E-03
Asteroid physical parameters (km, seconds, rotational period in hours):        
   GM= n.a.                RAD= n.a.               ROTPER= n.a.                
   H= 24.4                 G= .150                 B-V= n.a.                   
                           ALBEDO= n.a.            STYP= n.a.                  
*******************************************************************************
 Date__(UT)__HR:MN     R.A._________(ICRF)_________DEC
******************************************************
$$SOE
 2018-Aug-02 09:14  m  01 54 22.194774 -22 57 11.10667
 2018-Aug-02 09:15  m  01 54 22.236493 -22 57 10.77373
 2018-Aug-02 09:16  m  01 54 22.278175 -22 57 10.44080
 2018-Aug-02 09:17  m  01 54 22.319823 -22 57 10.10789
 2018-Aug-02 09:18  m  01 54 22.361434 -22 57 09.77499
 2018-Aug-02 09:19  m  01 54 22.403009 -22 57 09.44211
 2018-Aug-02 09:20  m  01 54 22.444549 -22 57 09.10923
 2018-Aug-02 09:21  m  01 54 22.486053 -22 57 08.77636
 2018-Aug-02 09:22  m  01 54 22.527520 -22 57 08.44350
 2018-Aug-02 09:23  m  01 54 22.568952 -22 57 08.11065
 2018-Aug-02 09:24  m  01 54 22.610348 -22 57 07.77781
 2018-Aug-02 09:25  m  01 54 22.651709 -22 57 07.44498
 2018-Aug-02 09:26  m  01 54 22.693033 -22 57 07.11215
 2018-Aug-02 09:27  m  01 54 22.734321 -22 57 06.77932
 2018-Aug-02 09:28  m  01 54 22.775574 -22 57 06.44651
 2018-Aug-02 09:29  m  01 54 22.816790 -22 57 06.11369
 2018-Aug-02 09:30  m  01 54 22.857971 -22 57 05.78088
 2018-Aug-02 09:31  m  01 54 22.899116 -22 57 05.44806
 2018-Aug-02 09:32  m  01 54 22.940224 -22 57 05.11525
 2018-Aug-02 09:33  m  01 54 22.981297 -22 57 04.78244
 2018-Aug-02 09:34  m  01 54 23.022334 -22 57 04.44963
 2018-Aug-02 09:35  m  01 54 23.063335 -22 57 04.11682
 2018-Aug-02 09:36  m  01 54 23.104300 -22 57 03.78401
 2018-Aug-02 09:37  m  01 54 23.145229 -22 57 03.45119
 2018-Aug-02 09:38  m  01 54 23.186122 -22 57 03.11837
 2018-Aug-02 09:39  m  01 54 23.226980 -22 57 02.78554
 2018-Aug-02 09:40  m  01 54 23.267801 -22 57 02.45271
 2018-Aug-02 09:41  m  01 54 23.308586 -22 57 02.11987
 2018-Aug-02 09:42  m  01 54 23.349336 -22 57 01.78703
 2018-Aug-02 09:43  m  01 54 23.390049 -22 57 01.45418
 2018-Aug-02 09:44  m  01 54 23.430727 -22 57 01.12131
 2018-Aug-02 09:45  m  01 54 23.471369 -22 57 00.78844
 2018-Aug-02 09:46  m  01 54 23.511974 -22 57 00.45556
 2018-Aug-02 09:47  m  01 54 23.552544 -22 57 00.12267
 2018-Aug-02 09:48  m  01 54 23.593078 -22 56 59.78977
 2018-Aug-02 09:49  m  01 54 23.633577 -22 56 59.45685
 2018-Aug-02 09:50  m  01 54 23.674039 -22 56 59.12392
 2018-Aug-02 09:51  m  01 54 23.714465 -22 56 58.79097
 2018-Aug-02 09:52  m  01 54 23.754856 -22 56 58.45801
 2018-Aug-02 09:53  m  01 54 23.795211 -22 56 58.12504
 2018-Aug-02 09:54  m  01 54 23.835530 -22 56 57.79204
 2018-Aug-02 09:55  m  01 54 23.875813 -22 56 57.45903
 2018-Aug-02 09:56  m  01 54 23.916060 -22 56 57.12600
 2018-Aug-02 09:57  r  01 54 23.956272 -22 56 56.79296
 2018-Aug-02 09:58  m  01 54 23.996447 -22 56 56.45989
 2018-Aug-02 09:59  m  01 54 24.036587 -22 56 56.12680
 2018-Aug-02 10:00  m  01 54 24.076692 -22 56 55.79369
 2018-Aug-02 10:01  m  01 54 24.116760 -22 56 55.46055
 2018-Aug-02 10:02  m  01 54 24.156793 -22 56 55.12740
 2018-Aug-02 10:03  m  01 54 24.196790 -22 56 54.79422
 2018-Aug-02 10:04  m  01 54 24.236751 -22 56 54.46101
 2018-Aug-02 10:05  m  01 54 24.276677 -22 56 54.12778
 2018-Aug-02 10:06  m  01 54 24.316567 -22 56 53.79452
 2018-Aug-02 10:07  m  01 54 24.356422 -22 56 53.46124
 2018-Aug-02 10:08  m  01 54 24.396241 -22 56 53.12792
 2018-Aug-02 10:09  m  01 54 24.436024 -22 56 52.79458
 2018-Aug-02 10:10  m  01 54 24.475772 -22 56 52.46121
 2018-Aug-02 10:11  m  01 54 24.515484 -22 56 52.12780
 2018-Aug-02 10:12  m  01 54 24.555161 -22 56 51.79437
 2018-Aug-02 10:13  m  01 54 24.594802 -22 56 51.46090
 2018-Aug-02 10:14  m  01 54 24.634408 -22 56 51.12740
 2018-Aug-02 10:15  m  01 54 24.673979 -22 56 50.79387
 2018-Aug-02 10:16  m  01 54 24.713514 -22 56 50.46030
 2018-Aug-02 10:17  m  01 54 24.753013 -22 56 50.12670
 2018-Aug-02 10:18  m  01 54 24.792478 -22 56 49.79306
 2018-Aug-02 10:19  m  01 54 24.831907 -22 56 49.45938
 2018-Aug-02 10:20  m  01 54 24.871300 -22 56 49.12567
 2018-Aug-02 10:21  m  01 54 24.910659 -22 56 48.79192
 2018-Aug-02 10:22  m  01 54 24.949982 -22 56 48.45813
 2018-Aug-02 10:23  m  01 54 24.989270 -22 56 48.12429
 2018-Aug-02 10:24  m  01 54 25.028523 -22 56 47.79042
 2018-Aug-02 10:25  m  01 54 25.067740 -22 56 47.45650
 2018-Aug-02 10:26  m  01 54 25.106923 -22 56 47.12255
 2018-Aug-02 10:27  m  01 54 25.146070 -22 56 46.78855
 2018-Aug-02 10:28  m  01 54 25.185183 -22 56 46.45450
 2018-Aug-02 10:29  m  01 54 25.224260 -22 56 46.12041
 2018-Aug-02 10:30  m  01 54 25.263303 -22 56 45.78628
 2018-Aug-02 10:31  m  01 54 25.302310 -22 56 45.45209
 2018-Aug-02 10:32  m  01 54 25.341283 -22 56 45.11786
 2018-Aug-02 10:33  m  01 54 25.380220 -22 56 44.78359
 2018-Aug-02 10:34  m  01 54 25.419123 -22 56 44.44926
 2018-Aug-02 10:35  m  01 54 25.457992 -22 56 44.11488
 2018-Aug-02 10:36  m  01 54 25.496825 -22 56 43.78046
 2018-Aug-02 10:37  m  01 54 25.535624 -22 56 43.44598
 2018-Aug-02 10:38  m  01 54 25.574388 -22 56 43.11145
 2018-Aug-02 10:39  m  01 54 25.613117 -22 56 42.77687
 2018-Aug-02 10:40  m  01 54 25.651812 -22 56 42.44223
 2018-Aug-02 10:41  m  01 54 25.690472 -22 56 42.10754
 2018-Aug-02 10:42  m  01 54 25.729098 -22 56 41.77279
 2018-Aug-02 10:43  m  01 54 25.767689 -22 56 41.43799
 2018-Aug-02 10:44  m  01 54 25.806246 -22 56 41.10313
 2018-Aug-02 10:45  m  01 54 25.844769 -22 56 40.76821
 2018-Aug-02 10:46  m  01 54 25.883257 -22 56 40.43324
 2018-Aug-02 10:47  m  01 54 25.921711 -22 56 40.09821
 2018-Aug-02 10:48  m  01 54 25.960131 -22 56 39.76311
 2018-Aug-02 10:49  m  01 54 25.998516 -22 56 39.42796
 2018-Aug-02 10:50  m  01 54 26.036868 -22 56 39.09274
 2018-Aug-02 10:51  m  01 54 26.075185 -22 56 38.75747
 2018-Aug-02 10:52  m  01 54 26.113468 -22 56 38.42213
 2018-Aug-02 10:53  m  01 54 26.151718 -22 56 38.08672
 2018-Aug-02 10:54  m  01 54 26.189933 -22 56 37.75125
 2018-Aug-02 10:55  m  01 54 26.228115 -22 56 37.41572
 2018-Aug-02 10:56  m  01 54 26.266262 -22 56 37.08012
 2018-Aug-02 10:57  m  01 54 26.304376 -22 56 36.74445
 2018-Aug-02 10:58  m  01 54 26.342456 -22 56 36.40872
 2018-Aug-02 10:59  m  01 54 26.380503 -22 56 36.07291
 2018-Aug-02 11:00  m  01 54 26.418516 -22 56 35.73704
 2018-Aug-02 11:01  m  01 54 26.456495 -22 56 35.40110
 2018-Aug-02 11:02  m  01 54 26.494441 -22 56 35.06509
 2018-Aug-02 11:03  m  01 54 26.532353 -22 56 34.72901
 2018-Aug-02 11:04  m  01 54 26.570232 -22 56 34.39285
 2018-Aug-02 11:05  m  01 54 26.608078 -22 56 34.05662
 2018-Aug-02 11:06  m  01 54 26.645890 -22 56 33.72032
 2018-Aug-02 11:07  m  01 54 26.683669 -22 56 33.38395
 2018-Aug-02 11:08  m  01 54 26.721415 -22 56 33.04750
 2018-Aug-02 11:09  m  01 54 26.759128 -22 56 32.71097
 2018-Aug-02 11:10  m  01 54 26.796808 -22 56 32.37436
 2018-Aug-02 11:11  m  01 54 26.834454 -22 56 32.03768
 2018-Aug-02 11:12  m  01 54 26.872068 -22 56 31.70093
 2018-Aug-02 11:13  m  01 54 26.909649 -22 56 31.36409
 2018-Aug-02 11:14  m  01 54 26.947198 -22 56 31.02717
 2018-Aug-02 11:15  m  01 54 26.984713 -22 56 30.69017
 2018-Aug-02 11:16  m  01 54 27.022196 -22 56 30.35309
